{
  "norad_id": 42814,
  "name": "HELLAS-SAT 3",
  "history": [
    {
      "epoch": "2026-03-28T20:06:17.762112Z",
      "apogee_km": 35808.64813990499,
      "perigee_km": 35763.60995748241,
      "latitude_deg": 0.05644587276757972,
      "longitude_deg": 39.0201255682538,
      "height_km": 35806.80621387937,
      "semi_major_axis_km": 42164.2660486937,
      "eccentricity": 0.00053408,
      "inclination_deg": 0.074,
      "raan_deg": 45.5706,
      "arg_perigee_deg": 321.7998,
      "mean_anomaly_deg": 159.4312,
      "mean_motion_rev_day": 1.00273447
    },
    {
      "epoch": "2026-03-29T02:57:00.300960Z",
      "apogee_km": 35808.58725029752,
      "perigee_km": 35763.57273223764,
      "latitude_deg": -0.020512175481831516,
      "longitude_deg": 38.939767458358986,
      "height_km": 35788.68694551626,
      "semi_major_axis_km": 42164.21699126758,
      "eccentricity": 0.0005338,
      "inclination_deg": 0.0747,
      "raan_deg": 46.1821,
      "arg_perigee_deg": 321.5607,
      "mean_anomaly_deg": 262.0193,
      "mean_motion_rev_day": 1.00273622
    }
  ]
}